NORAD_CAT_ID,OBJECT_NAME,OBJECT_TYPE,EPOCH,MEAN_MOTION,ECCENTRICITY,INCLINATION,RA_OF_ASC_NODE,ARG_OF_PERICENTER,MEAN_ANOMALY,BSTAR,MEAN_MOTION_DOT,MEAN_MOTION_DDOT,TLE_LINE0,TLE_LINE1,TLE_LINE2,SEMIMAJOR_AXIS,PERIOD,APOGEE,PERIGEE,DECAYED
53895.0,STARLINK-5032,PAYLOAD,2023-01-30 23:26:31,15.08832435,7.01e-05,53.2205,13.467,77.9888,282.1182,-6.883e-06,-3.97e-06,0.0,0 STARLINK-5032,1 53895U 22119K   23030.97675616 -.00000397  00000-0 -68830-5 0  9991,2 53895  53.2205  13.4670 0000701  77.9888 282.1182 15.08832435 20112,6917.904,95.438,540.253,539.284,0.0
53895.0,STARLINK-5032,PAYLOAD,2023-01-31 08:58:50,15.08837488,0.0001036,53.22,11.6823,87.6295,272.4816,3.255e-05,2.3e-06,0.0,0 STARLINK-5032,1 53895U 22119K   23031.37419259  .00000230  00000-0  32550-4 0  9998,2 53895  53.2200  11.6823 0001036  87.6295 272.4816 15.08837488 20174,6917.888,95.438,540.47,539.036,0.0
53895.0,STARLINK-5032,PAYLOAD,2023-01-31 21:41:55,15.08834429,9.69e-05,53.2198,9.3035,84.5014,275.6089,3.3174e-05,2.4e-06,0.0,0 STARLINK-5032,1 53895U 22119K   23031.90411494  .00000240  00000-0  33174-4 0  9994,2 53895  53.2198   9.3035 0000969  84.5014 275.6089 15.08834429 20672,6917.897,95.438,540.433,539.092,0.0
53895.0,STARLINK-5032,PAYLOAD,2023-02-01 07:14:13,15.08848617,0.000114,53.2201,7.5198,93.5635,266.5487,0.0001088,1.445e-05,0.0,0 STARLINK-5032,1 53895U 22119K   23032.30154242  .00001445  00000-0  10880-3 0  9990,2 53895  53.2201   7.5198 0001140  93.5635 266.5487 15.08848617 20314,6917.854,95.437,540.508,538.93,0.0
53895.0,STARLINK-5032,PAYLOAD,2023-02-02 02:18:52,15.08832496,0.0001491,53.2205,3.951,106.7911,253.3245,-5.5139e-05,-1.165e-05,0.0,0 STARLINK-5032,1 53895U 22119K   23033.09643914 -.00001165  00000-0 -55139-4 0  9994,2 53895  53.2205   3.9510 0001491 106.7911 253.3245 15.08832496 20436,6917.903,95.438,540.8,538.737,0.0
53895.0,STARLINK-5032,PAYLOAD,2023-02-02 07:05:01,15.08835859,0.000119,53.2199,3.0592,89.5845,270.5284,-1.7314e-05,-5.63e-06,0.0,0 STARLINK-5032,1 53895U 22119K   23033.29515693 -.00000563  00000-0 -17314-4 0  9992,2 53895  53.2199   3.0592 0001190  89.5845 270.5284 15.08835859 20888,6917.893,95.438,540.581,538.935,0.0
53895.0,STARLINK-5032,PAYLOAD,2023-02-03 03:45:01,15.08849143,0.0001002,53.2198,359.1939,90.9678,269.1429,-3.2404e-06,-3.39e-06,0.0,0 STARLINK-5032,1 53895U 22119K   23034.15626724 -.00000339  00000-0 -32404-5 0  9995,2 53895  53.2198 359.1939 0001002  90.9678 269.1429 15.08849143 20593,6917.852,95.437,540.411,539.024,0.0
53895.0,STARLINK-5032,PAYLOAD,2023-02-03 06:55:47,15.08854565,0.0001295,53.2201,358.5984,92.4238,267.6902,4.3677e-05,4.08e-06,0.0,0 STARLINK-5032,1 53895U 22119K   23034.28874176  .00000408  00000-0  43677-4 0  9993,2 53895  53.2201 358.5984 0001295  92.4238 267.6902 15.08854565 20610,6917.836,95.437,540.597,538.805,0.0
53895.0,STARLINK-5032,PAYLOAD,2023-02-04 06:46:35,15.08840841,0.0001493,53.22,354.1382,100.3039,259.8122,6.9924e-05,8.25e-06,0.0,0 STARLINK-5032,1 53895U 22119K   23035.28234978  .00000825  00000-0  69924-4 0  9990,2 53895  53.2200 354.1382 0001493 100.3039 259.8122 15.08840841 20766,6917.878,95.438,540.776,538.71,0.0
53895.0,STARLINK-5032,PAYLOAD,2023-02-05 03:26:36,15.08840295,0.0001563,53.2198,350.2703,94.7773,265.3398,-9.9369e-05,-1.869e-05,0.0,0 STARLINK-5032,1 53895U 22119K   23036.14347700 -.00001869  00000-0 -99369-4 0  9991,2 53895  53.2198 350.2703 0001563  94.7773 265.3398 15.08840295 20899,6917.879,95.438,540.826,538.663,0.0
53895.0,STARLINK-5032,PAYLOAD,2023-02-06 03:17:22,15.08845497,0.0001149,53.219,345.8122,89.7015,270.4108,4.5417e-05,4.35e-06,0.0,0 STARLINK-5032,1 53895U 22119K   23037.13706929  .00000435  00000-0  45417-4 0  9994,2 53895  53.2190 345.8122 0001149  89.7015 270.4108 15.08845497 21042,6917.864,95.437,540.523,538.934,0.0
53895.0,STARLINK-5032,PAYLOAD,2023-02-06 06:28:08,15.08847225,0.0001272,53.2197,345.2181,92.7516,267.3622,6.4478e-05,7.39e-06,0.0,0 STARLINK-5032,1 53895U 22119K   23037.26954723  .00000739  00000-0  64478-4 0  9990,2 53895  53.2197 345.2181 0001272  92.7516 267.3622 15.08847225 21480,6917.858,95.437,540.603,538.843,0.0
53895.0,STARLINK-5032,PAYLOAD,2023-02-06 19:11:14,15.08832545,0.0001383,53.22,342.8393,91.3205,268.7946,3.572e-05,2.81e-06,0.0,0 STARLINK-5032,1 53895U 22119K   23037.79947820  .00000281  00000-0  35720-4 0  9998,2 53895  53.2200 342.8393 0001383  91.3205 268.7946 15.08832545 21142,6917.903,95.438,540.725,538.811,0.0
53895.0,STARLINK-5032,PAYLOAD,2023-02-06 20:46:37,15.08837398,0.0001143,53.2188,342.5413,93.5799,266.5324,4.1087e-05,3.66e-06,0.0,0 STARLINK-5032,1 53895U 22119K   23037.86571452  .00000366  00000-0  41087-4 0  9997,2 53895  53.2188 342.5413 0001143  93.5799 266.5324 15.08837398 21577,6917.888,95.438,540.544,538.963,0.0
53895.0,STARLINK-5032,PAYLOAD,2023-02-07 03:08:09,15.08847597,0.0001484,53.2197,341.3524,103.568,256.5477,9.6854e-05,1.254e-05,0.0,0 STARLINK-5032,1 53895U 22119K   23038.13066554  .00001254  00000-0  96854-4 0  9999,2 53895  53.2197 341.3524 0001484 103.5680 256.5477 15.08847597 21194,6917.857,95.437,540.749,538.696,0.0
53895.0,STARLINK-5032,PAYLOAD,2023-02-07 22:12:48,15.08841342,0.0001354,53.2202,337.7843,95.2546,264.86,-8.0735e-05,-1.573e-05,0.0,0 STARLINK-5032,1 53895U 22119K   23038.92555665 -.00001573  00000-0 -80735-4 0  9999,2 53895  53.2202 337.7843 0001354  95.2546 264.8600 15.08841342 21314,6917.876,95.437,540.678,538.805,0.0
53895.0,STARLINK-5032,PAYLOAD,2023-02-08 06:09:43,15.08846372,0.0001157,53.2197,336.2981,76.6198,283.4923,-2.6421e-05,-7.08e-06,0.0,0 STARLINK-5032,1 53895U 22119K   23039.25675124 -.00000708  00000-0 -26421-4 0  9990,2 53895  53.2197 336.2981 0001157  76.6198 283.4923 15.08846372 21369,6917.861,95.437,540.526,538.926,0.0
53895.0,STARLINK-5032,PAYLOAD,2023-02-09 06:00:30,15.08849832,0.0001372,53.2194,331.8361,91.7761,268.3388,-6.8361e-06,-3.97e-06,0.0,0 STARLINK-5032,1 53895U 22119K   23040.25035168 -.00000397  00000-0 -68361-5 0  9994,2 53895  53.2194 331.8361 0001372  91.7761 268.3388 15.08849832 21936,6917.85,95.437,540.664,538.766,0.0
53895.0,STARLINK-5032,PAYLOAD,2023-02-10 01:05:09,15.08835126,0.0001935,53.2197,328.269,60.0686,300.0498,6.9298e-06,-1.78e-06,0.0,0 STARLINK-5032,1 53895U 22119K   23041.04524489 -.00000178  00000-0  69298-5 0  9997,2 53895  53.2197 328.2690 0001935  60.0686 300.0498 15.08835126 22055,6917.895,95.438,541.099,538.422,0.0
53895.0,STARLINK-5032,PAYLOAD,2023-02-10 12:12:49,15.08847561,0.0001218,53.2198,326.1886,89.3948,270.7184,8.964e-05,1.139e-05,0.0,0 STARLINK-5032,1 53895U 22119K   23041.50891093  .00001139  00000-0  89640-4 0  9995,2 53895  53.2198 326.1886 0001218  89.3948 270.7184 15.08847561 21701,6917.857,95.437,540.565,538.88,0.0
53895.0,STARLINK-5032,PAYLOAD,2023-02-11 02:31:16,15.08869124,0.0001533,53.2197,323.51,93.4725,266.6442,0.00018719,2.695e-05,0.0,0 STARLINK-5032,1 53895U 22119K   23042.10505375  .00002695  00000-0  18719-3 0  9993,2 53895  53.2197 323.5100 0001533  93.4725 266.6442 15.08869124 21798,6917.791,95.436,540.717,538.596,0.0
53895.0,STARLINK-5032,PAYLOAD,2023-02-11 18:25:10,15.08830571,0.0002054,53.2198,320.539,69.4795,290.6418,-3.7391e-05,-8.83e-06,0.0,0 STARLINK-5032,1 53895U 22119K   23042.76748842 -.00000883  00000-0 -37391-4 0  9990,2 53895  53.2198 320.5390 0002054  69.4795 290.6418 15.08830571 21891,6917.909,95.438,541.195,538.353,0.0
53895.0,STARLINK-5032,PAYLOAD,2023-02-12 03:57:29,15.08841375,0.0001847,53.2179,318.7561,78.6197,281.5003,-0.00010654,-1.983e-05,0.0,0 STARLINK-5032,1 53895U 22119K   23043.16492319 -.00001983  00000-0 -10654-3 0  9994,2 53895  53.2179 318.7561 0001847  78.6197 281.5003 15.08841375 21956,6917.876,95.437,541.019,538.463,0.0
53895.0,STARLINK-5032,PAYLOAD,2023-02-12 11:54:25,15.08832718,0.0001106,53.2187,317.2683,99.3551,260.7567,-0.00014297,-2.562e-05,0.0,0 STARLINK-5032,1 53895U 22119K   23043.49612759 -.00002562  00000-0 -14297-3 0  9993,2 53895  53.2187 317.2683 0001106  99.3551 260.7567 15.08832718 22424,6917.903,95.438,540.533,539.003,0.0
53895.0,STARLINK-5032,PAYLOAD,2023-02-13 00:37:30,15.08837771,9.37e-05,53.218,314.8889,104.7116,255.398,-4.6505e-06,-3.62e-06,0.0,0 STARLINK-5032,1 53895U 22119K   23044.02604210 -.00000362  00000-0 -46505-5 0  9991,2 53895  53.2180 314.8889 0000937 104.7116 255.3980 15.08837771 22082,6917.887,95.438,540.4,539.104,0.0
53895.0,STARLINK-5032,PAYLOAD,2023-02-13 03:48:15,15.08853243,0.0001333,53.2188,314.2923,103.9724,256.1417,-0.00014022,-2.52e-05,0.0,0 STARLINK-5032,1 53895U 22119K   23044.15851721 -.00002520  00000-0 -14022-3 0  9991,2 53895  53.2188 314.2923 0001333 103.9724 256.1417 15.08853243 22109,6917.84,95.437,540.627,538.783,0.0
53895.0,STARLINK-5032,PAYLOAD,2023-02-13 18:06:45,15.0882886,0.0001212,53.2182,311.6158,96.3697,263.7433,-1.6245e-05,-5.46e-06,0.0,0 STARLINK-5032,1 53895U 22119K   23044.75469232 -.00000546  00000-0 -16245-4 0  9995,2 53895  53.2182 311.6158 0001212  96.3697 263.7433 15.08828860 22192,6917.914,95.438,540.618,538.941,0.0
53895.0,STARLINK-5032,PAYLOAD,2023-02-14 03:39:04,15.08832931,0.0001683,53.2182,309.8333,87.2926,272.8259,2.6655e-05,1.36e-06,0.0,0 STARLINK-5032,1 53895U 22119K   23045.15212998  .00000136  00000-0  26655-4 0  9994,2 53895  53.2182 309.8333 0001683  87.2926 272.8259 15.08832931 22250,6917.902,95.438,540.931,538.603,0.0
53895.0,STARLINK-5032,PAYLOAD,2023-02-14 10:00:36,15.08833334,0.0001606,53.2184,308.6424,85.3096,274.8079,-4.8083e-05,-1.053e-05,0.0,0 STARLINK-5032,1 53895U 22119K   23045.41709119 -.00001053  00000-0 -48083-4 0  9999,2 53895  53.2184 308.6424 0001606  85.3096 274.8079 15.08833334 22713,6917.901,95.438,540.877,538.655,0.0
53895.0,STARLINK-5032,PAYLOAD,2023-02-15 09:51:23,15.08842344,0.000104,53.2185,304.1833,86.3358,273.7753,-2.2648e-05,-6.48e-06,0.0,0 STARLINK-5032,1 53895U 22119K   23046.41068916 -.00000648  00000-0 -22648-4 0  9991,2 53895  53.2185 304.1833 0001040  86.3358 273.7753 15.08842344 22441,6917.873,95.437,540.458,539.019,0.0
